{
  "type": "FeatureCollection",
  "features": [
    {
      "type": "Feature",
      "properties": {
        "norad_id": 32366,
        "name": "FENGYUN 1C DEB",
        "group": "fengyun-1c-debris",
        "lat": 77.12277100027096,
        "lon": -28.398123864319512,
        "alt_km": 890.2650942733126,
        "timestamp": "2025-12-27T10:28:59.081041+00:00",
        "meta_object_name": "FENGYUN 1C DEB",
        "meta_object_id": "1999-025CZK",
        "meta_epoch": "2025-12-27T01:30:14.052096",
        "meta_mean_motion": 14.13933569,
        "meta_eccentricity": 0.0137041,
        "meta_inclination": 96.7746,
        "meta_ra_of_asc_node": 119.9885,
        "meta_arg_of_pericenter": 224.1227,
        "meta_mean_anomaly": 134.8954,
        "meta_ephemeris_type": 0,
        "meta_classification_type": "U",
        "meta_norad_cat_id": 32366,
        "meta_element_set_no": 999,
        "meta_rev_at_epoch": 93406,
        "meta_bstar": 0.0021815,
        "meta_mean_motion_dot": 4.501e-05,
        "meta_mean_motion_ddot": 0,
        "tle_line1": "1 32366U 99025CZK 25361.06266264  .00004501  00000+0  21815-2 0  9992",
        "tle_line2": "2 32366  96.7746 119.9885 0137041 224.1227 134.8954 14.13933569934068"
      },
      "geometry": {
        "type": "Point",
        "coordinates": [
          -28.398123864319512,
          77.12277100027096
        ]
      }
    },
    {
      "type": "Feature",
      "properties": {
        "norad_id": 32372,
        "name": "FENGYUN 1C DEB",
        "group": "fengyun-1c-debris",
        "lat": 28.11772571047036,
        "lon": -125.50638843717965,
        "alt_km": 813.9294500419037,
        "timestamp": "2025-12-27T10:28:59.081054+00:00",
        "meta_object_name": "FENGYUN 1C DEB",
        "meta_object_id": "1999-025CZR",
        "meta_epoch": "2025-12-11T11:21:44.110080",
        "meta_mean_motion": 13.35367723,
        "meta_eccentricity": 0.04586798,
        "meta_inclination": 97.3163,
        "meta_ra_of_asc_node": 226.9338,
        "meta_arg_of_pericenter": 43.4714,
        "meta_mean_anomaly": 320.164,
        "meta_ephemeris_type": 0,
        "meta_classification_type": "U",
        "meta_norad_cat_id": 32372,
        "meta_element_set_no": 999,
        "meta_rev_at_epoch": 60123,
        "meta_bstar": 0.003543376,
        "meta_mean_motion_dot": 3.249e-05,
        "meta_mean_motion_ddot": 0,
        "tle_line1": "1 32372U 99025CZR 25345.47342720  .00003249  00000+0  35434-2 0  9998",
        "tle_line2": "2 32372  97.3163 226.9338 0458679  43.4714 320.1640 13.35367723601231"
      },
      "geometry": {
        "type": "Point",
        "coordinates": [
          -125.50638843717965,
          28.11772571047036
        ]
      }
    },
    {
      "type": "Feature",
      "properties": {
        "norad_id": 32409,
        "name": "FENGYUN 1C DEB",
        "group": "fengyun-1c-debris",
        "lat": -40.09312416002923,
        "lon": 176.14463355621862,
        "alt_km": 669.6066273097704,
        "timestamp": "2025-12-27T10:28:59.081065+00:00",
        "meta_object_name": "FENGYUN 1C DEB",
        "meta_object_id": "1999-025CZV",
        "meta_epoch": "2025-12-24T17:41:01.140864",
        "meta_mean_motion": 14.76584409,
        "meta_eccentricity": 0.00389222,
        "meta_inclination": 99.5678,
        "meta_ra_of_asc_node": 164.7862,
        "meta_arg_of_pericenter": 116.043,
        "meta_mean_anomaly": 259.1652,
        "meta_ephemeris_type": 0,
        "meta_classification_type": "U",
        "meta_norad_cat_id": 32409,
        "meta_element_set_no": 999,
        "meta_rev_at_epoch": 59016,
        "meta_bstar": 0.0019717094,
        "meta_mean_motion_dot": 0.00013891,
        "meta_mean_motion_ddot": 0,
        "tle_line1": "1 32409U 99025CZV 25358.73681876  .00013891  00000+0  19717-2 0  9990",
        "tle_line2": "2 32409  99.5678 164.7862 0038922 116.0430 259.1652 14.76584409590166"
      },
      "geometry": {
        "type": "Point",
        "coordinates": [
          176.14463355621862,
          -40.09312416002923
        ]
      }
    },
    {
      "type": "Feature",
      "properties": {
        "norad_id": 32411,
        "name": "FENGYUN 1C DEB",
        "group": "fengyun-1c-debris",
        "lat": -4.223420788212179,
        "lon": -80.89802856646624,
        "alt_km": 779.7642961155334,
        "timestamp": "2025-12-27T10:28:59.081079+00:00",
        "meta_object_name": "FENGYUN 1C DEB",
        "meta_object_id": "1999-025CZX",
        "meta_epoch": "2025-12-22T01:03:16.729632",
        "meta_mean_motion": 14.09827877,
        "meta_eccentricity": 0.01237302,
        "meta_inclination": 98.4304,
        "meta_ra_of_asc_node": 273.4205,
        "meta_arg_of_pericenter": 349.967,
        "meta_mean_anomaly": 9.9034,
        "meta_ephemeris_type": 0,
        "meta_classification_type": "U",
        "meta_norad_cat_id": 32411,
        "meta_element_set_no": 999,
        "meta_rev_at_epoch": 65945,
        "meta_bstar": 0.00050914783,
        "meta_mean_motion_dot": 9.2e-06,
        "meta_mean_motion_ddot": 0,
        "tle_line1": "1 32411U 99025CZX 25356.04394363  .00000920  00000+0  50915-3 0  9992",
        "tle_line2": "2 32411  98.4304 273.4205 0123730 349.9670   9.9034 14.09827877659455"
      },
      "geometry": {
        "type": "Point",
        "coordinates": [
          -80.89802856646624,
          -4.223420788212179
        ]
      }
    },
    {
      "type": "Feature",
      "properties": {
        "norad_id": 32414,
        "name": "FENGYUN 1C DEB",
        "group": "fengyun-1c-debris",
        "lat": -10.342941305245779,
        "lon": -109.56083203267987,
        "alt_km": 852.9718106781993,
        "timestamp": "2025-12-27T10:28:59.081089+00:00",
        "meta_object_name": "FENGYUN 1C DEB",
        "meta_object_id": "1999-025DAA",
        "meta_epoch": "2025-12-23T04:00:39.098880",
        "meta_mean_motion": 14.18463584,
        "meta_eccentricity": 0.00450064,
        "meta_inclination": 98.8569,
        "meta_ra_of_asc_node": 67.8084,
        "meta_arg_of_pericenter": 327.2126,
        "meta_mean_anomaly": 32.6258,
        "meta_ephemeris_type": 0,
        "meta_classification_type": "U",
        "meta_norad_cat_id": 32414,
        "meta_element_set_no": 999,
        "meta_rev_at_epoch": 93880,
        "meta_bstar": 0.0013631783,
        "meta_mean_motion_dot": 2.8e-05,
        "meta_mean_motion_ddot": 0,
        "tle_line1": "1 32414U 99025DAA 25357.16711920  .00002800  00000+0  13632-2 0  9994",
        "tle_line2": "2 32414  98.8569  67.8084 0045006 327.2126  32.6258 14.18463584938800"
      },
      "geometry": {
        "type": "Point",
        "coordinates": [
          -109.56083203267987,
          -10.342941305245779
        ]
      }
    },
    {
      "type": "Feature",
      "properties": {
        "norad_id": 32419,
        "name": "FENGYUN 1C DEB",
        "group": "fengyun-1c-debris",
        "lat": -74.29576504493397,
        "lon": 85.23624644938828,
        "alt_km": 860.8290356650186,
        "timestamp": "2025-12-27T10:28:59.081100+00:00",
        "meta_object_name": "FENGYUN 1C DEB",
        "meta_object_id": "1999-025DAF",
        "meta_epoch": "2025-12-11T15:09:56.013984",
        "meta_mean_motion": 14.09908253,
        "meta_eccentricity": 0.02839501,
        "meta_inclination": 97.9459,
        "meta_ra_of_asc_node": 281.0334,
        "meta_arg_of_pericenter": 32.1797,
        "meta_mean_anomaly": 329.6358,
        "meta_ephemeris_type": 0,
        "meta_classification_type": "U",
        "meta_norad_cat_id": 32419,
        "meta_element_set_no": 999,
        "meta_rev_at_epoch": 63555,
        "meta_bstar": 0.0013854285,
        "meta_mean_motion_dot": 3.513e-05,
        "meta_mean_motion_ddot": 0,
        "tle_line1": "1 32419U 99025DAF 25345.63189831  .00003513  00000+0  13854-2 0  9996",
        "tle_line2": "2 32419  97.9459 281.0334 0283950  32.1797 329.6358 14.09908253635552"
      },
      "geometry": {
        "type": "Point",
        "coordinates": [
          85.23624644938828,
          -74.29576504493397
        ]
      }
    },
    {
      "type": "Feature",
      "properties": {
        "norad_id": 32422,
        "name": "FENGYUN 1C DEB",
        "group": "fengyun-1c-debris",
        "lat": 33.18173192896798,
        "lon": -43.99550667033722,
        "alt_km": 946.4344040921687,
        "timestamp": "2025-12-27T10:28:59.081110+00:00",
        "meta_object_name": "FENGYUN 1C DEB",
        "meta_object_id": "1999-025DAJ",
        "meta_epoch": "2025-12-18T14:28:39.254304",
        "meta_mean_motion": 13.98014994,
        "meta_eccentricity": 0.02982939,
        "meta_inclination": 97.8414,
        "meta_ra_of_asc_node": 123.2691,
        "meta_arg_of_pericenter": 275.9311,
        "meta_mean_anomaly": 80.7936,
        "meta_ephemeris_type": 0,
        "meta_classification_type": "U",
        "meta_norad_cat_id": 32422,
        "meta_element_set_no": 999,
        "meta_rev_at_epoch": 63215,
        "meta_bstar": 0.00020595213,
        "meta_mean_motion_dot": 3.88e-06,
        "meta_mean_motion_ddot": 0,
        "tle_line1": "1 32422U 99025DAJ 25352.60323211  .00000388  00000+0  20595-3 0  9995",
        "tle_line2": "2 32422  97.8414 123.2691 0298293 275.9311  80.7936 13.98014994632151"
      },
      "geometry": {
        "type": "Point",
        "coordinates": [
          -43.99550667033722,
          33.18173192896798
        ]
      }
    }
  ]
}